[{"OBJECT_NAME":"OBJECT B","OBJECT_ID":"2024-203B","EPOCH":"2026-03-09T23:52:52.928256","MEAN_MOTION":15.27506959,"ECCENTRICITY":0.00103904,"INCLINATION":97.4268,"RA_OF_ASC_NODE":139.5887,"ARG_OF_PERICENTER":321.1475,"MEAN_ANOMALY":38.9016,"EPHEMERIS_TYPE":0,"CLASSIFICATION_TYPE":"U","NORAD_CAT_ID":61870,"ELEMENT_SET_NO":999,"REV_AT_EPOCH":7381,"BSTAR":0.00063263842,"MEAN_MOTION_DOT":0.00016997,"MEAN_MOTION_DDOT":0},{"OBJECT_NAME":"STARLINK-32660","OBJECT_ID":"2024-229P","EPOCH":"2026-03-09T19:27:55.803456","MEAN_MOTION":15.27574209,"ECCENTRICITY":0.00016941,"INCLINATION":42.998,"RA_OF_ASC_NODE":255.8344,"ARG_OF_PERICENTER":268.9624,"MEAN_ANOMALY":91.1033,"EPHEMERIS_TYPE":0,"CLASSIFICATION_TYPE":"U","NORAD_CAT_ID":62205,"ELEMENT_SET_NO":999,"REV_AT_EPOCH":7074,"BSTAR":0.00077437549,"MEAN_MOTION_DOT":0.00021105,"MEAN_MOTION_DDOT":0}]
